CCSDS_OMM_VERS = 2.0
CREATION_DATE  = 
ORIGINATOR     = 

OBJECT_NAME    = STARLINK-36380
OBJECT_ID      = 2026-059Z
CENTER_NAME    = EARTH
REF_FRAME      = TEME
TIME_SYSTEM    = UTC
MEAN_ELEMENT_THEORY = SGP/SGP4

EPOCH          = 2026-03-31T16:00:01.999584
MEAN_MOTION    = 15.82936644
ECCENTRICITY   = .0000761
INCLINATION    = 53.1592
RA_OF_ASC_NODE = 252.5705
ARG_OF_PERICENTER = 67.0637
MEAN_ANOMALY   = 229.5322

EPHEMERIS_TYPE = 0
CLASSIFICATION_TYPE = U
NORAD_CAT_ID   = 68344
ELEMENT_SET_NO = 999
REV_AT_EPOCH   = 257
BSTAR          = -.10483E-1
MEAN_MOTION_DOT = -.1978563E-1
MEAN_MOTION_DDOT = 0

CCSDS_OMM_VERS = 2.0
CREATION_DATE  = 
ORIGINATOR     = 

OBJECT_NAME    = STARLINK-37214
OBJECT_ID      = 2026-059AA
CENTER_NAME    = EARTH
REF_FRAME      = TEME
TIME_SYSTEM    = UTC
MEAN_ELEMENT_THEORY = SGP/SGP4

EPOCH          = 2026-03-31T16:00:01.999584
MEAN_MOTION    = 15.83790224
ECCENTRICITY   = .0000591
INCLINATION    = 53.1593
RA_OF_ASC_NODE = 252.5383
ARG_OF_PERICENTER = 65.4106
MEAN_ANOMALY   = 246.4881

EPHEMERIS_TYPE = 0
CLASSIFICATION_TYPE = U
NORAD_CAT_ID   = 68345
ELEMENT_SET_NO = 999
REV_AT_EPOCH   = 257
BSTAR          = -.10059E-1
MEAN_MOTION_DOT = -.1977767E-1
MEAN_MOTION_DDOT = 0

CCSDS_OMM_VERS = 2.0
CREATION_DATE  = 
ORIGINATOR     = 

OBJECT_NAME    = STARLINK-37169
OBJECT_ID      = 2026-059AB
CENTER_NAME    = EARTH
REF_FRAME      = TEME
TIME_SYSTEM    = UTC
MEAN_ELEMENT_THEORY = SGP/SGP4

EPOCH          = 2026-03-31T16:00:01.999584
MEAN_MOTION    = 15.83992471
ECCENTRICITY   = .0000643
INCLINATION    = 53.1592
RA_OF_ASC_NODE = 252.5304
ARG_OF_PERICENTER = 75.5653
MEAN_ANOMALY   = 240.0732

EPHEMERIS_TYPE = 0
CLASSIFICATION_TYPE = U
NORAD_CAT_ID   = 68346
ELEMENT_SET_NO = 999
REV_AT_EPOCH   = 257
BSTAR          = -.99069E-2
MEAN_MOTION_DOT = -.1968431E-1
MEAN_MOTION_DDOT = 0

CCSDS_OMM_VERS = 2.0
CREATION_DATE  = 
ORIGINATOR     = 

OBJECT_NAME    = STARLINK-37136
OBJECT_ID      = 2026-059AC
CENTER_NAME    = EARTH
REF_FRAME      = TEME
TIME_SYSTEM    = UTC
MEAN_ELEMENT_THEORY = SGP/SGP4

EPOCH          = 2026-03-31T16:00:01.999584
MEAN_MOTION    = 15.84180643
ECCENTRICITY   = .0000681
INCLINATION    = 53.1593
RA_OF_ASC_NODE = 252.5226
ARG_OF_PERICENTER = 79.0676
MEAN_ANOMALY   = 240.3322

EPHEMERIS_TYPE = 0
CLASSIFICATION_TYPE = U
NORAD_CAT_ID   = 68347
ELEMENT_SET_NO = 999
REV_AT_EPOCH   = 257
BSTAR          = -.98087E-2
MEAN_MOTION_DOT = -.1966979E-1
MEAN_MOTION_DDOT = 0

CCSDS_OMM_VERS = 2.0
CREATION_DATE  = 
ORIGINATOR     = 

OBJECT_NAME    = STARLINK-37182
OBJECT_ID      = 2026-059AD
CENTER_NAME    = EARTH
REF_FRAME      = TEME
TIME_SYSTEM    = UTC
MEAN_ELEMENT_THEORY = SGP/SGP4

EPOCH          = 2026-03-31T16:00:01.999584
MEAN_MOTION    = 15.83565641
ECCENTRICITY   = .000077
INCLINATION    = 53.1593
RA_OF_ASC_NODE = 252.5461
ARG_OF_PERICENTER = 69.8164
MEAN_ANOMALY   = 238.3665

EPHEMERIS_TYPE = 0
CLASSIFICATION_TYPE = U
NORAD_CAT_ID   = 68348
ELEMENT_SET_NO = 999
REV_AT_EPOCH   = 257
BSTAR          = -.10274E-1
MEAN_MOTION_DOT = -.199557E-1
MEAN_MOTION_DDOT = 0

CCSDS_OMM_VERS = 2.0
CREATION_DATE  = 
ORIGINATOR     = 

OBJECT_NAME    = STARLINK-37183
OBJECT_ID      = 2026-059AE
CENTER_NAME    = EARTH
REF_FRAME      = TEME
TIME_SYSTEM    = UTC
MEAN_ELEMENT_THEORY = SGP/SGP4

EPOCH          = 2026-03-31T16:00:01.999584
MEAN_MOTION    = 15.84374138
ECCENTRICITY   = .0000776
INCLINATION    = 53.1593
RA_OF_ASC_NODE = 252.5151
ARG_OF_PERICENTER = 74.3099
MEAN_ANOMALY   = 248.7937

EPHEMERIS_TYPE = 0
CLASSIFICATION_TYPE = U
NORAD_CAT_ID   = 68349
ELEMENT_SET_NO = 999
REV_AT_EPOCH   = 257
BSTAR          = -.96985E-2
MEAN_MOTION_DOT = -.1963803E-1
MEAN_MOTION_DDOT = 0

CCSDS_OMM_VERS = 2.0
CREATION_DATE  = 
ORIGINATOR     = 

OBJECT_NAME    = CENTISPACE-1 OBJECT A
OBJECT_ID      = 2026-060A
CENTER_NAME    = EARTH
REF_FRAME      = TEME
TIME_SYSTEM    = UTC
MEAN_ELEMENT_THEORY = SGP/SGP4

EPOCH          = 2026-03-31T22:07:19.160256
MEAN_MOTION    = 14.74887229
ECCENTRICITY   = .00130111
INCLINATION    = 54.9828
RA_OF_ASC_NODE = 350.9279
ARG_OF_PERICENTER = 316.4493
MEAN_ANOMALY   = 43.5478

EPHEMERIS_TYPE = 0
CLASSIFICATION_TYPE = U
NORAD_CAT_ID   = 68350
ELEMENT_SET_NO = 999
REV_AT_EPOCH   = 137
BSTAR          = .33707763E-3
MEAN_MOTION_DOT = .2073E-4
MEAN_MOTION_DDOT = 0

CCSDS_OMM_VERS = 2.0
CREATION_DATE  = 
ORIGINATOR     = 

OBJECT_NAME    = CENTISPACE-1 OBJECT B
OBJECT_ID      = 2026-060B
CENTER_NAME    = EARTH
REF_FRAME      = TEME
TIME_SYSTEM    = UTC
MEAN_ELEMENT_THEORY = SGP/SGP4

EPOCH          = 2026-04-01T04:37:22.600416
MEAN_MOTION    = 14.74925534
ECCENTRICITY   = .0013266
INCLINATION    = 54.9828
RA_OF_ASC_NODE = 349.8209
ARG_OF_PERICENTER = 317.6475
MEAN_ANOMALY   = 42.3499

EPHEMERIS_TYPE = 0
CLASSIFICATION_TYPE = U
NORAD_CAT_ID   = 68351
ELEMENT_SET_NO = 999
REV_AT_EPOCH   = 141
BSTAR          = .2476E-3
MEAN_MOTION_DOT = .1468E-4
MEAN_MOTION_DDOT = 0

CCSDS_OMM_VERS = 2.0
CREATION_DATE  = 
ORIGINATOR     = 

OBJECT_NAME    = CENTISPACE-1 OBJECT C
OBJECT_ID      = 2026-060C
CENTER_NAME    = EARTH
REF_FRAME      = TEME
TIME_SYSTEM    = UTC
MEAN_ELEMENT_THEORY = SGP/SGP4

EPOCH          = 2026-04-01T04:35:42.156960
MEAN_MOTION    = 14.75102115
ECCENTRICITY   = .0012518
INCLINATION    = 54.9800
RA_OF_ASC_NODE = 349.8159
ARG_OF_PERICENTER = 323.3351
MEAN_ANOMALY   = 36.6791

EPHEMERIS_TYPE = 0
CLASSIFICATION_TYPE = U
NORAD_CAT_ID   = 68352
ELEMENT_SET_NO = 999
REV_AT_EPOCH   = 141
BSTAR          = .42632E-4
MEAN_MOTION_DOT = .8E-6
MEAN_MOTION_DDOT = 0

CCSDS_OMM_VERS = 2.0
CREATION_DATE  = 
ORIGINATOR     = 

OBJECT_NAME    = CENTISPACE-1 OBJECT D
OBJECT_ID      = 2026-060D
CENTER_NAME    = EARTH
REF_FRAME      = TEME
TIME_SYSTEM    = UTC
MEAN_ELEMENT_THEORY = SGP/SGP4

EPOCH          = 2026-03-31T12:19:36.304032
MEAN_MOTION    = 14.75128916
ECCENTRICITY   = .00132122
INCLINATION    = 54.9893
RA_OF_ASC_NODE = 352.5746
ARG_OF_PERICENTER = 325.1986
MEAN_ANOMALY   = 34.8148

EPHEMERIS_TYPE = 0
CLASSIFICATION_TYPE = U
NORAD_CAT_ID   = 68353
ELEMENT_SET_NO = 999
REV_AT_EPOCH   = 131
BSTAR          = .43489466E-4
MEAN_MOTION_DOT = .86E-6
MEAN_MOTION_DDOT = 0

CCSDS_OMM_VERS = 2.0
CREATION_DATE  = 
ORIGINATOR     = 

OBJECT_NAME    = CENTISPACE-1 OBJECT E
OBJECT_ID      = 2026-060E
CENTER_NAME    = EARTH
REF_FRAME      = TEME
TIME_SYSTEM    = UTC
MEAN_ELEMENT_THEORY = SGP/SGP4

EPOCH          = 2026-04-01T04:34:46.879968
MEAN_MOTION    = 14.75202797
ECCENTRICITY   = .0013417
INCLINATION    = 54.9774
RA_OF_ASC_NODE = 349.8073
ARG_OF_PERICENTER = 324.6040
MEAN_ANOMALY   = 35.4067

EPHEMERIS_TYPE = 0
CLASSIFICATION_TYPE = U
NORAD_CAT_ID   = 68354
ELEMENT_SET_NO = 999
REV_AT_EPOCH   = 141
BSTAR          = .44032E-4
MEAN_MOTION_DOT = .9E-6
MEAN_MOTION_DDOT = 0

CCSDS_OMM_VERS = 2.0
CREATION_DATE  = 
ORIGINATOR     = 

OBJECT_NAME    = CENTISPACE-1 OBJECT F
OBJECT_ID      = 2026-060F
CENTER_NAME    = EARTH
REF_FRAME      = TEME
TIME_SYSTEM    = UTC
MEAN_ELEMENT_THEORY = SGP/SGP4

EPOCH          = 2026-04-01T02:56:53.905632
MEAN_MOTION    = 14.75237828
ECCENTRICITY   = .0013873
INCLINATION    = 54.9763
RA_OF_ASC_NODE = 350.0809
ARG_OF_PERICENTER = 322.7746
MEAN_ANOMALY   = 37.2291

EPHEMERIS_TYPE = 0
CLASSIFICATION_TYPE = U
NORAD_CAT_ID   = 68355
ELEMENT_SET_NO = 999
REV_AT_EPOCH   = 140
BSTAR          = .42887E-4
MEAN_MOTION_DOT = .82E-6
MEAN_MOTION_DDOT = 0

